[{"OBJECT_NAME":"STARLINK-31647","OBJECT_ID":"2024-062R","EPOCH":"2026-03-09T22:13:45.524640","MEAN_MOTION":15.30192628,"ECCENTRICITY":0.00010648,"INCLINATION":53.1597,"RA_OF_ASC_NODE":254.8822,"ARG_OF_PERICENTER":82.5131,"MEAN_ANOMALY":277.5991,"EPHEMERIS_TYPE":0,"CLASSIFICATION_TYPE":"U","NORAD_CAT_ID":59389,"ELEMENT_SET_NO":999,"REV_AT_EPOCH":10970,"BSTAR":2.3506104e-5,"MEAN_MOTION_DOT":3.37e-6,"MEAN_MOTION_DDOT":0},{"OBJECT_NAME":"CZ-2C DEB","OBJECT_ID":"2018-056F","EPOCH":"2026-03-09T10:57:26.102304","MEAN_MOTION":15.27739248,"ECCENTRICITY":0.00119172,"INCLINATION":98.1188,"RA_OF_ASC_NODE":250.032,"ARG_OF_PERICENTER":4.6998,"MEAN_ANOMALY":355.4349,"EPHEMERIS_TYPE":0,"CLASSIFICATION_TYPE":"U","NORAD_CAT_ID":43534,"ELEMENT_SET_NO":999,"REV_AT_EPOCH":41855,"BSTAR":0.00085537155,"MEAN_MOTION_DOT":0.00023193,"MEAN_MOTION_DDOT":0}]
